#dP2023 11 12 12  0  0.00000000      96 __u+U IGS20 EXT  IAC
## 2288  43200.00000000   900.00000000 60260 0.5000000000000
+  116   C06C07C08C09C10C11C12C13C14C16C19C20C21C22C23C24C25
+        C26C27C28C29C30C32C33C34C35C36C37C38C39C40C41C42C43
+        C44C45C46E02E03E04E07E08E09E10E11E12E13E15E19E21E24
+        E25E26E27E30E31E33E34E36G01G02G03G04G05G06G07G08G09
+        G10G11G12G13G14G15G16G17G18G19G20G21G22G23G24G25G26
+        G27G28G29G30G31G32J02J03J04R01R02R03R04R05R07R08R09
+        R11R12R13R14R15R16R17R18R19R20R21R22R24R25  0  0  0
++         9  9  8  8  8  9  8  8  9  8  7  8  8  9  9  8  8
++         9  9  9 10 10  9  9  8 10  8  9 11 10  9  8  8  7
++         8  8  9  8  7  6  5  7  5  7  7  7  9  6  6  8  7
++         6  6  7  7  7  7  8  5  7  8  7  5  7  7  8  6  4
++         8  6  6  5  7  6  6  7  6  7  7  8  7  8  7  7  8
++         7  6  7  8  8  7 11 10 10  6  7  8  9  8  8  8  7
++         7  7  9  9  9  8  6  9  9  9  7  6  8  7  0  0  0
%c M  cc GPS ccc cccc cccc cccc cccc ccccc ccccc ccccc ccccc
%c cc cc ccc ccc cccc cccc cccc cccc ccccc ccccc ccccc ccccc
%f  0.0000000  0.000000000  0.00000000000  0.000000000000000
%f  0.0000000  0.000000000  0.00000000000  0.000000000000000
%i    0    0    0    0      0      0      0      0         0
%i    0    0    0    0      0      0      0      0         0
/* IAC                                ULTRA-RAPID PREDICTION
/* S/V CLOCKS ARE ALIGNED TO GNSS TIME                      
/* G:C1WC2W R:C1PC2P E:C1XC5X C:C2IC6I J:C1CC2S             
/* PCV:IGS20_2280 OL/AL:FES2004  NONE     YN ORB:CoN CLK:CoN
*  2023 11 12 12 30  0.00000000
PC06 -13782.947479  39520.398449   3565.534670     19.721372
PC07  -3427.729602  31052.639483  28482.367879   -306.548912
PC08 -15929.374465  21125.804319 -32908.820878    244.770456
PC09  -8034.360188  39049.518947  13211.236888    -79.353278
PC10   5318.499351  34431.826304  24435.197372    -14.388737
PC11 -12188.838002  20942.937508  13936.936286    252.096878
PC12 -15671.005022   1575.688685  23083.870472    861.937723
PC13  -8847.876499  22821.750489 -34242.427387    381.498316
PC14 -12041.083235  10528.756293 -22855.802186    769.069103
PC16 -16042.850051  38806.415046     -3.315613   -171.727345
PC19   2683.991376 -16635.818525  22257.319601   -971.008104
PC20  18357.784002  -4020.534407  20639.415021    123.365175
PC21 -24274.916606 -12197.445138  -6338.074411   -969.343296
PC22 -15422.929741 -20412.231572  11115.500242   -228.305589
PC23   4850.286492  15677.022731  22572.163192   -823.180453
PC24 -25828.543443  10517.179905  -1422.921044    588.797133
PC25 -13592.320023  18851.469175  15452.604059    253.960682
PC26 -22411.558936  -2413.933023 -16493.451378   -205.122691
PC27  14683.229381   8395.618285 -22209.626853    227.016802
PC28   6593.291938  23737.603484 -13103.896934    171.269682
PC29   5991.271748 -26620.060152  -5846.989038    200.351958
PC30  15026.512755 -12161.619381 -20134.734769     -8.193595
PC32  24375.323189  12081.778142   6233.805773   -534.396959
PC33  -2685.004760  16624.059497 -22257.938638   -945.532935
PC34 -14686.628656  13655.150291  19391.149156    301.734414
PC35  -7584.410737 -23428.258709  13152.212017    504.567272
PC36  14801.567467 -18404.270121 -14834.670800   -137.772818
PC37  21879.855640   3488.418062  16956.429428   -883.979267
PC38 -23369.682550  22371.111245 -27110.794048    117.227555
PC39 -16572.497072  38269.709803  -5245.255055     -5.631446
PC40  -6564.752156  26482.387440  32249.544137    -43.695468
PC41  14919.228739  20442.504549 -11716.166452   -871.352245
PC42 -19365.502394   2782.296820 -19855.942029   -500.918716
PC43  -6612.151833  26270.120536   6657.977942     47.937731
PC44 -15068.903169  -8096.430268  22043.530439    290.481144
PC45  -5434.014076 -15305.831018 -22696.313864    -45.363333
PC46  25535.754189 -11190.919652    289.456996    -99.165124
PE02  21997.476023  13517.314438  14456.547428     77.807573
PE03  16559.139852  22238.468874  10362.696498    -72.967913
PE04 -18537.540049  -3392.006886 -22828.068627   -255.765829
PE07   9861.482154 -17131.791933  22027.188780    -87.394201
PE08  18519.165916   4049.847652  22726.504215   -175.846657
PE09  -9815.490594  16979.183936 -22179.211708   -225.004724
PE10 -22163.528613  15565.126774  11958.613020   -578.290077
PE11 -19351.450719  22320.927211   1821.653224   3197.139898
PE12 -21455.410756   7021.806384  19142.439577   -773.980574
PE13  19628.904123 -22007.019883  -2546.844417    -19.602586
PE15  21269.898687  -6622.442390 -19479.510591    -68.687486
PE19 -15407.033126 -23901.350744  -8230.967193  -1230.722108
PE21  -2869.839537 -17125.902033 -23972.190938   -563.795964
PE24 -19406.427884  10677.375162  19636.107906   -427.490689
PE25   2411.276302  17104.051443  24042.751855     -3.524637
PE26   5877.754193 -24150.058351  16076.968775    278.740770
PE27  18872.105252 -10990.293812 -19970.932274   -198.007722
PE30  29271.117965   1865.070059  -3925.207388   -656.017062
PE31 -29257.814759  -1545.605467   4257.868954     -9.902446
PE33  -9971.762653 -12927.860799  24696.061800      2.195385
PE34  10449.120507  12411.545496 -24758.120484    -77.534522
PE36  -6547.086971  24285.274568 -15599.043481   -142.985995
PG01 -14109.678861  21812.837342  -4897.785037    163.196468
PG02 -16467.068974  20543.573149   3053.316496   -529.953850
PG03 -10054.499285  12728.735744 -21153.223414    -19.211587
PG04  -3286.508488  21770.225211 -14754.029098    210.803467
PG05  22261.314363  -6492.456923  12856.955741   -150.093486
PG06  15315.544436   3484.488070 -21367.334520    507.901568
PG07    692.669459  19687.184511  18066.163337     15.445893
PG08  -9294.403831  14435.027593  20077.051047   -151.738422
PG09   5980.760445  25198.399157  -5848.673327     -5.177213
PG10 -21556.546994 -11070.290182  11441.157259    -61.087468
PG11  20550.763617  -7496.887328 -15004.647583   -456.815794
PG12  12568.623314 -11729.829715 -20504.537650   -446.171621
PG13  14319.723129  -4245.200153  21755.372892    594.450746
PG14  18531.793111  13401.381343  13675.025103    241.104625
PG15   7109.838053 -16281.232048  19190.003374     96.385944
PG16 -25374.425950   -330.287462   8275.537262   -423.383108
PG17  12776.158796  21510.972000  -8280.867069    723.314234
PG18  -1251.089191 -18528.429463  18928.209525   -476.910285
PG19  15433.927737  14841.785752 -16128.109810    397.879356
PG20  26419.562210  -1139.330979    921.774899    402.021289
PG21 -17599.298170  18312.019917   6372.374064    144.467432
PG22  22596.116336  11388.669262   8019.065671     85.313043
PG23 -10301.818379 -14686.280518  19661.107303     97.676780
PG24  14969.979249 -21629.669118    695.686820   -369.432050
PG25  -1777.216835 -15794.638498 -21630.928659    477.054576
PG26 -26462.985824  -3555.427043  -1919.236663    217.163585
PG27 -15719.648613    181.591295  21207.926549    -68.873281
PG28 -14619.706343  -5522.511851 -21502.258560    -44.530232
PG29  -3428.054756 -25586.275973  -6059.508741   -610.224446
PG30   9865.044002  12688.560773  21241.192609   -469.042743
PG31 -19424.244333   2983.592926 -18255.326089   -225.660718
PG32 -15798.974113 -18066.112322 -11417.610491   -584.803443
PJ02 -28595.966147  22585.816870  26331.183008     -0.148711
PJ03 -31556.942998  26539.121400  13896.397331     -7.988344
PJ04 -24349.646466  20978.147304 -22196.906740     72.284653
PR01   3983.397131 -11188.486279  22569.130133     69.668122
PR02 -10417.859550 -19646.053556  12602.687361    -22.345988
PR03 -18880.106079 -16591.980177  -4512.052012     88.878274
PR04 -16530.998585  -4779.754426 -18815.589019    210.764835
PR05  -5476.717481   9717.240088 -22932.065141    122.101965
PR07  18989.375686  16086.986116   5488.381741     68.961138
PR08  16518.364944   4331.224524  18984.471396    -73.241799
PR09   1048.747227  11423.698702  22796.072467    152.807203
PR11  24802.262391  -4576.153454   3880.655396   -212.628555
PR12  17308.639294 -11626.176565 -14659.003050     33.347253
PR13   1668.479553 -11681.196777 -22629.327370    -41.221905
PR14 -17811.892561  -4252.848903 -17738.877489     25.538225
PR15 -24878.326611   5073.238981  -2415.912738     84.826484
PR16 -17469.646511  11601.148534  14506.403607     20.548927
PR17  -7253.541586 -10777.052726  21957.827712     34.201746
PR18 -12152.817507   6589.728618  21447.835416    111.574634
PR19 -11971.799583  19492.314654  11304.237997   -254.377297
PR20  -3546.817041  23374.756442  -9518.766656   -103.399868
PR21   7376.420171  10193.267045 -22187.534150    -52.817354
PR22  12841.839912  -7207.052066 -20799.104737     93.170471
PR24   2096.712561 -23360.390845  10025.713479    -31.854695
PR25   7030.006364  11224.780481 -21795.408874     -5.960760
EOF
